{"type":"FeatureCollection","name":"sf-shoreline-and-islands","source":{"title":"SF Shoreline and Islands","dataset":"rgcx-5tix","url":"https://data.sfgov.org/d/rgcx-5tix","licence":"Public Domain Dedication and License","processing":"Clipped to the 808581 area and simplified to 0.0002 degrees for documentation styling."},"features":[{"type":"Feature","properties":{"name":"San Francisco mainland and islands"},"geometry":{"type":"MultiPolygon","coordinates":[[[[-122.3851907,37.7781807],[-122.3843326,37.7789321],[-122.3842284,37.7791518],[-122.3844993,37.7820359],[-122.3842603,37.7791051],[-122.3851907,37.7781807]]],[[[-122.4115531,37.8104481],[-122.4115373,37.8104537],[-122.4116173,37.8105939],[-122.4116331,37.8105882],[-122.4115531,37.8104481]]],[[[-122.4117867,37.8105782],[-122.4117709,37.8105838],[-122.4117923,37.8106203],[-122.4118081,37.8106147],[-122.4117867,37.8105782]]],[[[-122.4113932,37.8105049],[-122.4113774,37.8105105],[-122.411458,37.8106515],[-122.4114737,37.8106458],[-122.4113932,37.8105049]]],[[[-122.4117023,37.8106082],[-122.4116865,37.8106138],[-122.4117078,37.8106503],[-122.4117236,37.8106447],[-122.4117023,37.8106082]]],[[[-122.4116164,37.8106386],[-122.4116006,37.8106443],[-122.4116219,37.8106808],[-122.4116377,37.8106752],[-122.4116164,37.8106386]]],[[[-122.4119004,37.8105885],[-122.4118846,37.8105941],[-122.4119401,37.810689],[-122.4119559,37.8106834],[-122.4119004,37.8105885]]],[[[-122.4115359,37.8106672],[-122.4115201,37.8106728],[-122.4115415,37.8107094],[-122.4115573,37.8107038],[-122.4115359,37.8106672]]],[[[-122.4118112,37.8106202],[-122.4117954,37.8106258],[-122.411854,37.8107259],[-122.4118698,37.8107203],[-122.4118112,37.8106202]]],[[[-122.4114501,37.8106977],[-122.4114343,37.8107033],[-122.4114557,37.8107398],[-122.4114715,37.8107342],[-122.4114501,37.8106977]]],[[[-122.4117268,37.8106501],[-122.411711,37.8106557],[-122.4117836,37.81078],[-122.4117994,37.8107744],[-122.4117268,37.8106501]]],[[[-122.4116409,37.8106806],[-122.4116251,37.8106862],[-122.4116977,37.8108105],[-122.4117135,37.8108049],[-122.4116409,37.8106806]]],[[[-122.4115604,37.8107092],[-122.4115446,37.8107148],[-122.4116173,37.810839],[-122.4116331,37.8108334],[-122.4115604,37.8107092]]],[[[-122.4114746,37.8107396],[-122.4114588,37.8107453],[-122.4115315,37.8108695],[-122.4115473,37.8108639],[-122.4114746,37.8107396]]],[[[-122.4114013,37.8107874],[-122.4113855,37.810793],[-122.4114476,37.8108992],[-122.4114634,37.8108936],[-122.4114013,37.8107874]]],[[[-122.4197376,37.8111399],[-122.419929,37.8115792],[-122.4198589,37.811325],[-122.4203667,37.8115145],[-122.4206083,37.8112719],[-122.4174264,37.8091711],[-122.4174415,37.8089321],[-122.4162001,37.8088589],[-122.4161634,37.8085078],[-122.4171957,37.8085384],[-122.4163517,37.8084811],[-122.4163594,37.8082653],[-122.4173581,37.8081464],[-122.4179099,37.8090342],[-122.4189445,37.8094544],[-122.4183273,37.8091495],[-122.4199516,37.8091306],[-122.4199607,37.808907],[-122.4180243,37.8088457],[-122.4178989,37.80862],[-122.4204752,37.808308],[-122.4206816,37.808963],[-122.4203738,37.8090089],[-122.4207731,37.8090899],[-122.4209241,37.8088023],[-122.422857,37.8102606],[-122.4210659,37.8085554],[-122.421314,37.8083073],[-122.4215985,37.8085482],[-122.4213374,37.8082839],[-122.4218029,37.8083793],[-122.4215509,37.8080664],[-122.4233512,37.8068324],[-122.4249858,37.8067328],[-122.4261444,37.807357],[-122.4258015,37.8074107],[-122.4260578,37.8076979],[-122.4263379,37.8075862],[-122.4266493,37.8087994],[-122.426046,37.8102166],[-122.4251283,37.8106094],[-122.4243283,37.8104896],[-122.4248894,37.8108036],[-122.4258343,37.8105555],[-122.4264954,37.8099746],[-122.4268518,37.808118],[-122.4275461,37.8087876],[-122.4280269,37.8085745],[-122.4275589,37.8086459],[-122.4270143,37.8081141],[-122.4282499,37.8084106],[-122.4298483,37.8078303],[-122.4301213,37.8092203],[-122.4306348,37.8091716],[-122.4303165,37.8074615],[-122.4309293,37.8073253],[-122.4313544,37.8090618],[-122.431741,37.8090289],[-122.431399,37.8073192],[-122.4320128,37.8071829],[-122.4323516,37.8085132],[-122.4326148,37.8085142],[-122.4321842,37.8060825],[-122.432386,37.8059754],[-122.4323152,37.8060868],[-122.4325344,37.8065853],[-122.4324032,37.8060781],[-122.4326562,37.8058893],[-122.4324059,37.8059708],[-122.4327391,37.805724],[-122.4335436,37.8055959],[-122.4338852,37.8058163],[-122.4328071,37.8060345],[-122.4338875,37.8058272],[-122.4339505,37.8061234],[-122.432819,37.8063431],[-122.4339528,37.8061342],[-122.434004,37.806428],[-122.4328815,37.8066516],[-122.434006,37.8064388],[-122.4340609,37.8067262],[-122.4329415,37.8069553],[-122.4340622,37.8067372],[-122.4344322,37.8070447],[-122.433094,37.8073139],[-122.4355934,37.8069098],[-122.4356693,37.8072524],[-122.4336122,37.8076237],[-122.4356721,37.8072659],[-122.4358436,37.8076513],[-122.4339302,37.8079089],[-122.4358521,37.8076856],[-122.4339465,37.8079349],[-122.4337778,37.8078789],[-122.4336551,37.8081778],[-122.432919,37.8079317],[-122.4336601,37.8081887],[-122.4338238,37.8079121],[-122.433938,37.80795],[-122.4358726,37.8076968],[-122.4358423,37.8075748],[-122.4422562,37.8068417],[-122.4423061,37.8071058],[-122.4410023,37.8074732],[-122.4425931,37.807187],[-122.4423478,37.8071968],[-122.4422772,37.8067798],[-122.4424831,37.8071381],[-122.442563,37.8067214],[-122.4435817,37.8066476],[-122.4436248,37.8068609],[-122.4428805,37.8071485],[-122.4436345,37.806941],[-122.443651,37.8068693],[-122.4435914,37.8065594],[-122.4438685,37.8064788],[-122.4439867,37.8064895],[-122.4439162,37.806814],[-122.4441897,37.8067815],[-122.4439677,37.8063621],[-122.445564,37.8060625],[-122.4426632,37.8063651],[-122.4426268,37.8064989],[-122.4431453,37.806518],[-122.4425991,37.8065838],[-122.442529,37.8059562],[-122.4456943,37.805789],[-122.4467847,37.8054107],[-122.4466841,37.8059253],[-122.4469069,37.805986],[-122.4466983,37.8060257],[-122.4470098,37.8065386],[-122.445731,37.8065404],[-122.4459948,37.8067875],[-122.4463978,37.8067202],[-122.4455946,37.8068935],[-122.4454781,37.8066638],[-122.4455751,37.8068993],[-122.4452803,37.8067216],[-122.4452446,37.8069972],[-122.44463,37.8068647],[-122.44527,37.8070758],[-122.4439221,37.8071935],[-122.4433214,37.8077006],[-122.4433729,37.8074092],[-122.4431196,37.8074375],[-122.4433044,37.8077038],[-122.4429161,37.8077988],[-122.4428971,37.8075235],[-122.4427464,37.8075344],[-122.4427933,37.8078118],[-122.4426984,37.8076006],[-122.4420225,37.8077392],[-122.4420465,37.8078797],[-122.4423599,37.8078405],[-122.4424607,37.8077944],[-122.4423339,37.807937],[-122.4415715,37.8078104],[-122.4414122,37.8078378],[-122.4415036,37.8079489],[-122.441821,37.8079911],[-122.4404134,37.8081581],[-122.4400454,37.8088378],[-122.4409644,37.808201],[-122.447194,37.8074821],[-122.4487417,37.8067065],[-122.4493173,37.8068424],[-122.452452,37.8062722],[-122.4544967,37.8064741],[-122.4583847,37.8054907],[-122.46,37.8053028],[-122.46,37.75],[-122.3758988,37.75],[-122.3760998,37.7522538],[-122.3799731,37.7520348],[-122.3798953,37.7528925],[-122.3813317,37.7529321],[-122.3826527,37.753388],[-122.3830291,37.7545969],[-122.3840898,37.7546636],[-122.3840856,37.7549561],[-122.380769,37.7552529],[-122.3814132,37.7564103],[-122.3812106,37.7582717],[-122.3814827,37.7595783],[-122.3792151,37.7599431],[-122.3795466,37.7634711],[-122.3798211,37.7634615],[-122.3795197,37.7602551],[-122.3804136,37.7602047],[-122.3807151,37.7633473],[-122.3809258,37.7633408],[-122.3806239,37.7601928],[-122.3811615,37.7601625],[-122.381349,37.7621528],[-122.3818515,37.7621235],[-122.381709,37.7606521],[-122.3820098,37.7606435],[-122.3833202,37.7620865],[-122.3810419,37.7622287],[-122.3811861,37.764938],[-122.3817081,37.764743],[-122.3817612,37.7624104],[-122.3821354,37.7623871],[-122.3823575,37.7646171],[-122.3823033,37.7623766],[-122.383122,37.7623255],[-122.3833126,37.7641449],[-122.3835948,37.7642586],[-122.3839183,37.7641489],[-122.3837575,37.7625494],[-122.3834404,37.7623056],[-122.384145,37.7622616],[-122.3844752,37.7640517],[-122.3843048,37.7621395],[-122.3851169,37.7623246],[-122.3851951,37.7633782],[-122.3863271,37.7631072],[-122.3872856,37.7636101],[-122.3866181,37.7639061],[-122.3865327,37.7654166],[-122.3858738,37.7666044],[-122.3828141,37.7667888],[-122.3828685,37.7671435],[-122.3848603,37.7670176],[-122.3849142,37.7675412],[-122.3824535,37.7676967],[-122.3851586,37.7681478],[-122.3848009,37.7686616],[-122.3855827,37.7701847],[-122.3833888,37.7693376],[-122.3831686,37.7697138],[-122.3857374,37.7705969],[-122.3852996,37.7716393],[-122.3856946,37.7714493],[-122.3855672,37.7721591],[-122.3858564,37.7706909],[-122.3863967,37.7714639],[-122.3867731,37.7732775],[-122.3847478,37.7733676],[-122.381469,37.7719224],[-122.3818276,37.7746202],[-122.3869357,37.774333],[-122.3870095,37.7750869],[-122.3848902,37.7753351],[-122.3850082,37.7763285],[-122.3870949,37.7761085],[-122.3876085,37.776753],[-122.3898703,37.7765047],[-122.3904238,37.7771471],[-122.387705,37.7783417],[-122.3853058,37.778456],[-122.3873542,37.7783648],[-122.3873649,37.7785909],[-122.3851273,37.7786392],[-122.3851427,37.7788204],[-122.3873666,37.7786101],[-122.3873954,37.7789186],[-122.3847795,37.7789839],[-122.3847941,37.7791654],[-122.3874083,37.7789453],[-122.3874285,37.7792738],[-122.3847456,37.7793344],[-122.3847603,37.7795423],[-122.3874303,37.779293],[-122.3874625,37.7796389],[-122.3847751,37.7796987],[-122.3847962,37.7799052],[-122.3874645,37.7796608],[-122.3874995,37.7800348],[-122.3847762,37.7800861],[-122.3847898,37.7803193],[-122.3875012,37.780054],[-122.3875401,37.7804717],[-122.384817,37.7805307],[-122.3848317,37.7807638],[-122.3875419,37.7804908],[-122.3875951,37.7809503],[-122.3848055,37.7809842],[-122.3848316,37.7812599],[-122.3875969,37.7809695],[-122.3876422,37.7814556],[-122.3848715,37.7818043],[-122.3877682,37.7818007],[-122.38758,37.7823469],[-122.3846934,37.7825522],[-122.3847683,37.7829449],[-122.38779,37.7828728],[-122.3877092,37.7832835],[-122.3862498,37.7834108],[-122.3863008,37.7839642],[-122.387723,37.7838808],[-122.3876873,37.7844014],[-122.3854279,37.7846118],[-122.3854718,37.7849985],[-122.3876443,37.7848696],[-122.3875783,37.7854627],[-122.3843557,37.78574],[-122.38454,37.7873989],[-122.3874202,37.7872461],[-122.3873946,37.7877254],[-122.3851423,37.7881355],[-122.3852741,37.7885246],[-122.3870623,37.7882338],[-122.3872015,37.7887787],[-122.3851613,37.7892252],[-122.3853155,37.789783],[-122.3873612,37.7893161],[-122.3876206,37.7897924],[-122.3855321,37.7905331],[-122.3857155,37.790965],[-122.3882569,37.7900124],[-122.3883824,37.790313],[-122.3880623,37.7905127],[-122.388625,37.7903183],[-122.3888211,37.7909828],[-122.391995,37.7938765],[-122.3916627,37.7945523],[-122.3924246,37.7948246],[-122.3912093,37.795784],[-122.3916031,37.7962101],[-122.393011,37.7955657],[-122.3941402,37.7968683],[-122.3931819,37.797513],[-122.3948103,37.7967138],[-122.3929466,37.7979434],[-122.3931881,37.7982482],[-122.3950294,37.7971288],[-122.3951449,37.7974999],[-122.3955067,37.7974747],[-122.3935735,37.7986385],[-122.3938172,37.7989386],[-122.3958398,37.7978797],[-122.3965362,37.7985987],[-122.3942655,37.8000785],[-122.3944501,37.8001865],[-122.3967544,37.7988394],[-122.3972644,37.7994064],[-122.3969097,37.7996378],[-122.3972701,37.7994472],[-122.3976522,37.7998521],[-122.3954576,37.8011721],[-122.395776,37.8014794],[-122.3980022,37.8002354],[-122.3983969,37.8006776],[-122.3961692,37.8019247],[-122.3970888,37.8030197],[-122.3994223,37.8018295],[-122.3997369,37.8021812],[-122.3975325,37.8034697],[-122.397797,37.8038092],[-122.3996153,37.8028129],[-122.3999855,37.80323],[-122.3982427,37.8042556],[-122.3985514,37.8046112],[-122.4004929,37.8034713],[-122.4009769,37.8035685],[-122.4004123,37.8072667],[-122.4009211,37.8076414],[-122.4028175,37.8060277],[-122.4034354,37.8064764],[-122.4023573,37.8077897],[-122.4027182,37.8080229],[-122.4039697,37.806584],[-122.4047306,37.8069763],[-122.4039462,37.808765],[-122.4044133,37.8088591],[-122.4053351,37.8068719],[-122.4059171,37.8071646],[-122.4061923,37.8100735],[-122.4068293,37.8100001],[-122.4066576,37.8078229],[-122.4075001,37.8079354],[-122.4076275,37.8084024],[-122.4078725,37.808095],[-122.4079227,37.8081158],[-122.4078003,37.8083979],[-122.4079389,37.808154],[-122.4078997,37.8084234],[-122.4080595,37.8082041],[-122.4080832,37.8084705],[-122.4082467,37.8082819],[-122.408265,37.8085108],[-122.4094005,37.8087251],[-122.4095764,37.8090518],[-122.4078815,37.808855],[-122.4096592,37.8090939],[-122.4096409,37.8094647],[-122.4080532,37.809264],[-122.40979,37.809596],[-122.4098019,37.8094163],[-122.4100707,37.8098913],[-122.4082689,37.8095682],[-122.40823,37.8097928],[-122.4100899,37.8099252],[-122.4101479,37.8103561],[-122.4083703,37.8101235],[-122.410141,37.8103683],[-122.4100617,37.8108602],[-122.408569,37.8106678],[-122.4100588,37.810874],[-122.4101996,37.8113205],[-122.4085823,37.8112227],[-122.4100423,37.8114286],[-122.4104196,37.8114043],[-122.4101667,37.8114916],[-122.4085482,37.8112742],[-122.4075959,37.8087985],[-122.4085257,37.811289],[-122.4101621,37.811511],[-122.4112585,37.8111217],[-122.4112358,37.8107672],[-122.4121288,37.8104603],[-122.4120242,37.8102804],[-122.4120856,37.8104378],[-122.4112291,37.8107552],[-122.4109193,37.8102079],[-122.4118939,37.8100317],[-122.4117255,37.8097426],[-122.410911,37.8101933],[-122.4106522,37.809736],[-122.4112078,37.8096801],[-122.4110704,37.8094379],[-122.4106443,37.809722],[-122.4104151,37.8093171],[-122.4105047,37.8088153],[-122.4104554,37.8093303],[-122.4105595,37.8088239],[-122.4112697,37.8091544],[-122.4112618,37.8089252],[-122.4126998,37.8105671],[-122.4115229,37.8112425],[-122.4128752,37.8105272],[-122.4120169,37.8093334],[-122.4122667,37.8096018],[-122.4121105,37.8092855],[-122.412588,37.8094323],[-122.4123936,37.8091722],[-122.4126299,37.8090835],[-122.4140401,37.8101441],[-122.4142947,37.809951],[-122.4134336,37.8092408],[-122.4153019,37.8098429],[-122.4147936,37.8092863],[-122.4151931,37.8094861],[-122.4149025,37.8092464],[-122.4153834,37.8094116],[-122.4151648,37.8092358],[-122.4153655,37.8091658],[-122.4188594,37.8114783],[-122.4194794,37.8113867],[-122.4190014,37.8108404],[-122.4197376,37.8111399]]],[[[-122.423323,37.8098891],[-122.4235741,37.8101582],[-122.4232662,37.8109637],[-122.4198127,37.8120207],[-122.4205946,37.8119681],[-122.4232859,37.8109867],[-122.4235052,37.810822],[-122.4236366,37.8106052],[-122.4236722,37.8103713],[-122.4236065,37.8101475],[-122.423323,37.8098891]]],[[[-122.4244019,37.8282643],[-122.4255176,37.8283121],[-122.4259702,37.8280189],[-122.4240876,37.8260014],[-122.422273,37.825015],[-122.4211277,37.8251028],[-122.4207107,37.8254506],[-122.4206217,37.825873],[-122.4219301,37.8271263],[-122.4218713,37.8268966],[-122.4244019,37.8282643]]],[[[-122.3604712,37.8201289],[-122.363596,37.8208755],[-122.3628497,37.8225993],[-122.3686351,37.8311528],[-122.3731462,37.8322583],[-122.3726026,37.8332929],[-122.3730489,37.8330022],[-122.3734472,37.8323147],[-122.3777064,37.8304409],[-122.3791378,37.8267888],[-122.3748495,37.8203051],[-122.3754104,37.819617],[-122.3748117,37.820248],[-122.3712788,37.8147176],[-122.3714505,37.8135647],[-122.3717814,37.8135738],[-122.3715793,37.8130435],[-122.3720543,37.8116282],[-122.372869,37.8111867],[-122.3728326,37.8107746],[-122.3716992,37.8094905],[-122.3703169,37.8086307],[-122.3677984,37.8078857],[-122.3672667,37.8073928],[-122.3652284,37.8076352],[-122.3619114,37.807073],[-122.3617025,37.807715],[-122.3609831,37.8080903],[-122.361162,37.8101181],[-122.3605619,37.8102086],[-122.3602534,37.8108851],[-122.3607287,37.8103028],[-122.3611856,37.810231],[-122.3610726,37.8124894],[-122.3592927,37.8134479],[-122.3588629,37.8146036],[-122.3595156,37.8150218],[-122.3620785,37.8141484],[-122.3639121,37.8140871],[-122.3670158,37.8123522],[-122.3687784,37.8127061],[-122.3698175,37.8134072],[-122.3710324,37.8160037],[-122.3650621,37.8185182],[-122.3647685,37.8184082],[-122.3642691,37.8188597],[-122.3636552,37.8205456],[-122.3605981,37.8198055],[-122.3604712,37.8201289]]]]}}]}
